NORAD_CAT_ID,OBJECT_NAME,OBJECT_TYPE,EPOCH,MEAN_MOTION,ECCENTRICITY,INCLINATION,RA_OF_ASC_NODE,ARG_OF_PERICENTER,MEAN_ANOMALY,BSTAR,MEAN_MOTION_DOT,MEAN_MOTION_DDOT,TLE_LINE0,TLE_LINE1,TLE_LINE2,SEMIMAJOR_AXIS,PERIOD,APOGEE,PERIGEE,DECAYED
53171.0,STARLINK-4052,PAYLOAD,2023-06-04 06:15:14,15.08843949,0.0001041,53.2164,345.3875,74.0762,286.0345,0.00011413,1.529e-05,0.0,0 STARLINK-4052,1 53171U 22083AR  23155.26058615  .00001529  00000-0  11413-3 0  9991,2 53171  53.2164 345.3875 0001041  74.0762 286.0345 15.08843949 49380,6917.868,95.437,540.453,539.013,0.0
53171.0,STARLINK-4052,PAYLOAD,2023-06-04 18:58:19,15.08846738,0.0001097,53.2169,343.0065,98.1599,261.9517,4.0431e-05,3.56e-06,0.0,0 STARLINK-4052,1 53171U 22083AR  23155.79050473  .00000356  00000-0  40431-4 0  9993,2 53171  53.2169 343.0065 0001097  98.1599 261.9517 15.08846738 49468,6917.86,95.437,540.484,538.966,0.0
53171.0,STARLINK-4052,PAYLOAD,2023-06-04 22:09:05,15.08847936,0.0001105,53.2168,342.4117,98.6583,261.4534,4.8497e-05,4.84e-06,0.0,0 STARLINK-4052,1 53171U 22083AR  23155.92298318  .00000484  00000-0  48497-4 0  9992,2 53171  53.2168 342.4117 0001105  98.6583 261.4534 15.08847936 50126,6917.856,95.437,540.486,538.957,0.0
53171.0,STARLINK-4052,PAYLOAD,2023-06-05 12:27:34,15.08836296,0.000116,53.2163,339.7356,94.1039,266.0085,5.6918e-05,6.18e-06,0.0,0 STARLINK-4052,1 53171U 22083AR  23156.51915073  .00000618  00000-0  56918-4 0  9998,2 53171  53.2163 339.7356 0001160  94.1039 266.0085 15.08836296 49579,6917.892,95.438,540.559,538.954,0.0
53171.0,STARLINK-4052,PAYLOAD,2023-06-05 18:49:06,15.08842667,0.0001102,53.2165,338.5464,89.1935,270.9184,5.5941e-05,6.03e-06,0.0,0 STARLINK-4052,1 53171U 22083AR  23156.78410717  .00000603  00000-0  55941-4 0  9991,2 53171  53.2165 338.5464 0001102  89.1935 270.9184 15.08842667 49611,6917.872,95.437,540.5,538.975,0.0
53171.0,STARLINK-4052,PAYLOAD,2023-06-05 21:59:52,15.08844804,0.0001096,53.2165,337.9516,87.7265,272.3853,7.0863e-05,8.4e-06,0.0,0 STARLINK-4052,1 53171U 22083AR  23156.91658514  .00000840  00000-0  70863-4 0  9998,2 53171  53.2165 337.9516 0001096  87.7265 272.3853 15.08844804 50272,6917.866,95.437,540.489,538.973,0.0
53171.0,STARLINK-4052,PAYLOAD,2023-06-06 12:18:21,15.08839118,0.0001004,53.2167,335.2751,87.4013,272.7094,0.00010223,1.34e-05,0.0,0 STARLINK-4052,1 53171U 22083AR  23157.51274801  .00001340  00000-0  10223-3 0  9997,2 53171  53.2167 335.2751 0001004  87.4013 272.7094 15.08839118 49724,6917.883,95.438,540.443,539.054,0.0
53171.0,STARLINK-4052,PAYLOAD,2023-06-06 18:39:53,15.08849379,0.000105,53.2168,334.0854,91.3524,268.7588,0.00010693,1.415e-05,0.0,0 STARLINK-4052,1 53171U 22083AR  23157.77770171  .00001415  00000-0  10693-3 0  9990,2 53171  53.2168 334.0854 0001050  91.3524 268.7588 15.08849379 49765,6917.852,95.437,540.443,538.99,0.0
53171.0,STARLINK-4052,PAYLOAD,2023-06-07 10:33:45,15.08834904,0.0001112,53.2146,331.1146,83.0528,277.0591,1.3374e-05,-7.5e-07,0.0,0 STARLINK-4052,1 53171U 22083AR  23158.44011092 -.00000075  00000-0  13374-4 0  9997,2 53171  53.2146 331.1146 0001112  83.0528 277.0591 15.08834904 50503,6917.896,95.438,540.53,538.992,0.0
53171.0,STARLINK-4052,PAYLOAD,2023-06-07 13:44:32,15.08830967,0.0001072,53.2163,330.5194,81.1623,278.9491,5.5281e-06,-2e-06,0.0,0 STARLINK-4052,1 53171U 22083AR  23158.57259662 -.00000200  00000-0  55281-5 0  9992,2 53171  53.2163 330.5194 0001072  81.1623 278.9491 15.08830967 49881,6917.908,95.438,540.515,539.031,0.0
53171.0,STARLINK-4052,PAYLOAD,2023-06-07 18:30:41,15.08837015,0.0001073,53.2162,329.6277,81.6475,278.4639,5.5661e-05,5.98e-06,0.0,0 STARLINK-4052,1 53171U 22083AR  23158.77131181  .00000598  00000-0  55661-4 0  9999,2 53171  53.2162 329.6277 0001073  81.6475 278.4639 15.08837015 49916,6917.89,95.438,540.497,539.012,0.0
53171.0,STARLINK-4052,PAYLOAD,2023-06-08 04:03:00,15.08839252,0.0001047,53.2162,327.8436,84.9718,275.1394,1.6052e-05,-3.2e-07,0.0,0 STARLINK-4052,1 53171U 22083AR  23159.16875193 -.00000032  00000-0  16052-4 0  9996,2 53171  53.2162 327.8436 0001047  84.9718 275.1394 15.08839252 49973,6917.883,95.438,540.472,539.023,0.0
53171.0,STARLINK-4052,PAYLOAD,2023-06-08 18:21:28,15.08840434,0.0001191,53.2165,325.1671,94.2846,265.8282,3.8789e-05,3.3e-06,0.0,0 STARLINK-4052,1 53171U 22083AR  23159.76491194  .00000330  00000-0  38789-4 0  9998,2 53171  53.2165 325.1671 0001191  94.2846 265.8282 15.08840434 50703,6917.879,95.438,540.568,538.92,0.0
53171.0,STARLINK-4052,PAYLOAD,2023-06-09 03:53:47,15.08839425,0.0001037,53.2169,323.383,90.2506,269.8604,8.4122e-06,-1.54e-06,0.0,0 STARLINK-4052,1 53171U 22083AR  23160.16235370 -.00000154  00000-0  84122-5 0  9994,2 53171  53.2169 323.3830 0001037  90.2506 269.8604 15.08839425 50128,6917.882,95.438,540.465,539.03,0.0
53171.0,STARLINK-4052,PAYLOAD,2023-06-09 19:47:39,15.0883528,8.84e-05,53.2166,320.4086,87.4143,272.6951,6.6181e-05,7.66e-06,0.0,0 STARLINK-4052,1 53171U 22083AR  23160.82475773  .00000766  00000-0  66181-4 0  9992,2 53171  53.2166 320.4086 0000884  87.4143 272.6951 15.08835280 50223,6917.895,95.438,540.371,539.148,0.0
53171.0,STARLINK-4052,PAYLOAD,2023-06-10 10:06:06,15.08848898,0.0001092,53.2179,317.7323,80.6695,279.4421,0.00012214,1.657e-05,0.0,0 STARLINK-4052,1 53171U 22083AR  23161.42090766  .00001657  00000-0  12214-3 0  9991,2 53171  53.2179 317.7323 0001092  80.6695 279.4421 15.08848898 50955,6917.853,95.437,540.474,538.963,0.0
53171.0,STARLINK-4052,PAYLOAD,2023-06-10 11:41:29,15.08845986,9.04e-05,53.2181,317.4351,83.2433,276.8662,0.00017975,2.575e-05,0.0,0 STARLINK-4052,1 53171U 22083AR  23161.48714769  .00002575  00000-0  17975-3 0  9992,2 53171  53.2181 317.4351 0000904  83.2433 276.8662 15.08845986 50320,6917.862,95.437,540.352,539.102,0.0
53171.0,STARLINK-4052,PAYLOAD,2023-06-10 13:16:51,15.08869955,0.0001197,53.217,317.1375,74.4622,285.6503,-0.00013312,-2.408e-05,0.0,0 STARLINK-4052,1 53171U 22083AR  23161.55337839 -.00002408  00000-0 -13312-3 0  9997,2 53171  53.2170 317.1375 0001197  74.4622 285.6503 15.08869955 50973,6917.789,95.436,540.482,538.826,0.0
53171.0,STARLINK-4052,PAYLOAD,2023-06-10 14:52:14,15.08885771,0.0001174,53.217,316.8402,68.0277,292.0839,-0.00038015,-6.34e-05,0.0,0 STARLINK-4052,1 53171U 22083AR  23161.61960994 -.00006340  00000-0 -38015-3 0  9994,2 53171  53.2170 316.8402 0001174  68.0277 292.0839 15.08885771 50349,6917.74,95.435,540.418,538.793,0.0
53171.0,STARLINK-4052,PAYLOAD,2023-06-10 18:03:01,15.08856195,9.64e-05,53.2168,316.2455,82.1356,277.9745,0.00020467,2.972e-05,0.0,0 STARLINK-4052,1 53171U 22083AR  23161.75210096  .00002972  00000-0  20467-3 0  9997,2 53171  53.2168 316.2455 0000964  82.1356 277.9745 15.08856195 51009,6917.831,95.437,540.363,539.029,0.0
53171.0,STARLINK-4052,PAYLOAD,2023-06-11 03:35:20,15.08850981,0.0001134,53.216,314.4617,69.2543,290.8571,0.00019499,2.818e-05,0.0,0 STARLINK-4052,1 53171U 22083AR  23162.14954537  .00002818  00000-0  19499-3 0  9998,2 53171  53.2160 314.4617 0001134  69.2543 290.8571 15.08850981 51069,6917.847,95.437,540.496,538.927,0.0
53171.0,STARLINK-4052,PAYLOAD,2023-06-11 13:07:39,15.08842952,9e-05,53.2164,312.6763,75.7483,284.3609,0.00017755,2.539e-05,0.0,0 STARLINK-4052,1 53171U 22083AR  23162.54698605  .00002539  00000-0  17755-3 0  9996,2 53171  53.2164 312.6763 0000900  75.7483 284.3609 15.08842952 50484,6917.871,95.437,540.359,539.114,0.0
53171.0,STARLINK-4052,PAYLOAD,2023-06-11 19:29:11,15.08856923,0.0001052,53.2166,311.4846,99.4843,260.6268,0.00013023,1.786e-05,0.0,0 STARLINK-4052,1 53171U 22083AR  23162.81193595  .00001786  00000-0  13023-3 0  9991,2 53171  53.2166 311.4846 0001052  99.4843 260.6268 15.08856923 50523,6917.829,95.436,540.421,538.966,0.0
53171.0,STARLINK-4052,PAYLOAD,2023-06-12 03:26:08,15.08841543,0.0001227,53.2164,310.0003,76.0514,284.0614,-1.5582e-05,-5.36e-06,0.0,0 STARLINK-4052,1 53171U 22083AR  23163.14314907 -.00000536  00000-0 -15582-4 0  9997,2 53171  53.2164 310.0003 0001227  76.0514 284.0614 15.08841543 51215,6917.876,95.437,540.589,538.892,0.0
53171.0,STARLINK-4052,PAYLOAD,2023-06-12 16:09:13,15.08839334,0.0001491,53.2164,307.6209,83.5279,276.5883,-8.0861e-05,-1.575e-05,0.0,0 STARLINK-4052,1 53171U 22083AR  23163.67307246 -.00001575  00000-0 -80861-4 0  9999,2 53171  53.2164 307.6209 0001491  83.5279 276.5883 15.08839334 50655,6917.882,95.438,540.779,538.716,0.0
53171.0,STARLINK-4052,PAYLOAD,2023-06-13 09:38:28,15.08834921,0.0001121,53.2179,304.3493,87.6987,272.4133,6.5836e-06,-1.83e-06,0.0,0 STARLINK-4052,1 53171U 22083AR  23164.40171331 -.00000183  00000-0  65836-5 0  9994,2 53171  53.2179 304.3493 0001121  87.6987 272.4133 15.08834921 51405,6917.896,95.438,540.536,538.985,0.0
53171.0,STARLINK-4052,PAYLOAD,2023-06-13 19:10:46,15.0884044,0.000113,53.2179,302.5647,90.2223,269.8899,6.8053e-05,7.95e-06,0.0,0 STARLINK-4052,1 53171U 22083AR  23164.79914911  .00000795  00000-0  68053-4 0  9996,2 53171  53.2179 302.5647 0001130  90.2223 269.8899 15.08840440 50826,6917.879,95.438,540.526,538.962,0.0
53171.0,STARLINK-4052,PAYLOAD,2023-06-14 07:53:51,15.0883822,0.0001213,53.2169,300.1857,88.9884,271.1247,-7.4305e-06,-4.06e-06,0.0,0 STARLINK-4052,1 53171U 22083AR  23165.32907372 -.00000406  00000-0 -74305-5 0  9998,2 53171  53.2169 300.1857 0001213  88.9884 271.1247 15.08838220 50906,6917.886,95.438,540.59,538.912,0.0
53171.0,STARLINK-4052,PAYLOAD,2023-06-15 09:20:02,15.08847943,0.0001796,53.218,295.4296,112.9021,247.2161,-0.00017266,-3.036e-05,0.0,0 STARLINK-4052,1 53171U 22083AR  23166.38892054 -.00003036  00000-0 -17266-3 0  9998,2 53171  53.2180 295.4296 0001796 112.9021 247.2161 15.08847943 51709,6917.856,95.437,540.964,538.479,0.0
53171.0,STARLINK-4052,PAYLOAD,2023-06-15 12:30:49,15.08833317,0.0001295,53.219,294.8357,103.2123,256.9013,2.7646e-05,1.52e-06,0.0,0 STARLINK-4052,1 53171U 22083AR  23166.52140369  .00000152  00000-0  27646-4 0  9997,2 53171  53.2190 294.8357 0001295 103.2123 256.9013 15.08833317 51085,6917.901,95.438,540.662,538.87,0.0
